{
  "type": "FeatureCollection",
  "features": [
    {
      "type": "Feature",
      "properties": {
        "norad_id": 40376,
        "name": "SMAP",
        "group": "resource",
        "lat": -12.007745281823599,
        "lon": 0.8338782982993573,
        "alt_km": 686.9711043775796,
        "timestamp": "2025-12-20T11:30:28.028305+00:00",
        "meta_object_name": "SMAP",
        "meta_object_id": "2015-003A",
        "meta_epoch": "2025-12-20T03:21:28.281024",
        "meta_mean_motion": 14.63353584,
        "meta_eccentricity": 0.0001223,
        "meta_inclination": 98.1288,
        "meta_ra_of_asc_node": 358.7571,
        "meta_arg_of_pericenter": 91.9044,
        "meta_mean_anomaly": 268.2298,
        "meta_ephemeris_type": 0,
        "meta_classification_type": "U",
        "meta_norad_cat_id": 40376,
        "meta_element_set_no": 999,
        "meta_rev_at_epoch": 58143,
        "meta_bstar": 7.9512e-05,
        "meta_mean_motion_dot": 3.64e-06,
        "meta_mean_motion_ddot": 0,
        "tle_line1": "1 40376U 15003A   25354.13991066  .00000364  00000+0  79512-4 0  9993",
        "tle_line2": "2 40376  98.1288 358.7571 0001223  91.9044 268.2298 14.63353584581439"
      },
      "geometry": {
        "type": "Point",
        "coordinates": [
          0.8338782982993573,
          -12.007745281823599
        ]
      }
    },
    {
      "type": "Feature",
      "properties": {
        "norad_id": 40536,
        "name": "KOMPSAT-3A",
        "group": "resource",
        "lat": 53.48839054836862,
        "lon": 159.75663013679141,
        "alt_km": 425.1726218734475,
        "timestamp": "2025-12-20T11:30:28.028315+00:00",
        "meta_object_name": "KOMPSAT-3A",
        "meta_object_id": "2015-014A",
        "meta_epoch": "2025-12-20T04:44:40.727040",
        "meta_mean_motion": 15.44202367,
        "meta_eccentricity": 0.0005424,
        "meta_inclination": 97.6791,
        "meta_ra_of_asc_node": 328.9571,
        "meta_arg_of_pericenter": 110.2841,
        "meta_mean_anomaly": 249.899,
        "meta_ephemeris_type": 0,
        "meta_classification_type": "U",
        "meta_norad_cat_id": 40536,
        "meta_element_set_no": 999,
        "meta_rev_at_epoch": 59410,
        "meta_bstar": 0.00030153,
        "meta_mean_motion_dot": 0.00013756,
        "meta_mean_motion_ddot": 0,
        "tle_line1": "1 40536U 15014A   25354.19769360  .00013756  00000+0  30153-3 0  9995",
        "tle_line2": "2 40536  97.6791 328.9571 0005424 110.2841 249.8990 15.44202367594100"
      },
      "geometry": {
        "type": "Point",
        "coordinates": [
          159.75663013679141,
          53.48839054836862
        ]
      }
    },
    {
      "type": "Feature",
      "properties": {
        "norad_id": 40697,
        "name": "SENTINEL-2A",
        "group": "resource",
        "lat": 30.765366232849622,
        "lon": 61.75020104313354,
        "alt_km": 786.9293061256567,
        "timestamp": "2025-12-20T11:30:28.028325+00:00",
        "meta_object_name": "SENTINEL-2A",
        "meta_object_id": "2015-028A",
        "meta_epoch": "2025-12-20T04:38:57.598080",
        "meta_mean_motion": 14.30807678,
        "meta_eccentricity": 0.0001061,
        "meta_inclination": 98.5745,
        "meta_ra_of_asc_node": 66.6215,
        "meta_arg_of_pericenter": 89.7164,
        "meta_mean_anomaly": 270.414,
        "meta_ephemeris_type": 0,
        "meta_classification_type": "U",
        "meta_norad_cat_id": 40697,
        "meta_element_set_no": 999,
        "meta_rev_at_epoch": 54813,
        "meta_bstar": 1.8281e-05,
        "meta_mean_motion_dot": 4e-08,
        "meta_mean_motion_ddot": 0,
        "tle_line1": "1 40697U 15028A   25354.19372220  .00000004  00000+0  18281-4 0  9994",
        "tle_line2": "2 40697  98.5745  66.6215 0001061  89.7164 270.4140 14.30807678548138"
      },
      "geometry": {
        "type": "Point",
        "coordinates": [
          61.75020104313354,
          30.765366232849622
        ]
      }
    },
    {
      "type": "Feature",
      "properties": {
        "norad_id": 40701,
        "name": "GAOFEN-8",
        "group": "resource",
        "lat": -18.720892649479545,
        "lon": -9.627243302371623,
        "alt_km": 454.4347524125278,
        "timestamp": "2025-12-20T11:30:28.028335+00:00",
        "meta_object_name": "GAOFEN-8",
        "meta_object_id": "2015-030A",
        "meta_epoch": "2025-12-20T04:24:17.946720",
        "meta_mean_motion": 15.38777487,
        "meta_eccentricity": 0.0011906,
        "meta_inclination": 97.69,
        "meta_ra_of_asc_node": 172.687,
        "meta_arg_of_pericenter": 112.9638,
        "meta_mean_anomaly": 247.2863,
        "meta_ephemeris_type": 0,
        "meta_classification_type": "U",
        "meta_norad_cat_id": 40701,
        "meta_element_set_no": 999,
        "meta_rev_at_epoch": 58385,
        "meta_bstar": 0.00017654,
        "meta_mean_motion_dot": 6.692e-05,
        "meta_mean_motion_ddot": 0,
        "tle_line1": "1 40701U 15030A   25354.18354105  .00006692  00000+0  17654-3 0  9995",
        "tle_line2": "2 40701  97.6900 172.6870 0011906 112.9638 247.2863 15.38777487583851"
      },
      "geometry": {
        "type": "Point",
        "coordinates": [
          -9.627243302371623,
          -18.720892649479545
        ]
      }
    },
    {
      "type": "Feature",
      "properties": {
        "norad_id": 40718,
        "name": "CARBONITE 1 (CBNT-1)",
        "group": "resource",
        "lat": 13.986495204937308,
        "lon": 173.26600917782008,
        "alt_km": 629.8455536396923,
        "timestamp": "2025-12-20T11:30:28.028345+00:00",
        "meta_object_name": "CARBONITE 1 (CBNT-1)",
        "meta_object_id": "2015-032D",
        "meta_epoch": "2025-12-20T03:20:46.484160",
        "meta_mean_motion": 14.82777163,
        "meta_eccentricity": 0.0014966,
        "meta_inclination": 97.6395,
        "meta_ra_of_asc_node": 174.8569,
        "meta_arg_of_pericenter": 157.231,
        "meta_mean_anomaly": 202.9571,
        "meta_ephemeris_type": 0,
        "meta_classification_type": "U",
        "meta_norad_cat_id": 40718,
        "meta_element_set_no": 999,
        "meta_rev_at_epoch": 56280,
        "meta_bstar": 0.00025274,
        "meta_mean_motion_dot": 1.996e-05,
        "meta_mean_motion_ddot": 0,
        "tle_line1": "1 40718U 15032D   25354.13942690  .00001996  00000+0  25274-3 0  9991",
        "tle_line2": "2 40718  97.6395 174.8569 0014966 157.2310 202.9571 14.82777163562809"
      },
      "geometry": {
        "type": "Point",
        "coordinates": [
          173.26600917782008,
          13.986495204937308
        ]
      }
    },
    {
      "type": "Feature",
      "properties": {
        "norad_id": 40878,
        "name": "YAOGAN-27",
        "group": "resource",
        "lat": 62.88505453362371,
        "lon": -175.88010935693006,
        "alt_km": 1198.6606084249106,
        "timestamp": "2025-12-20T11:30:28.028356+00:00",
        "meta_object_name": "YAOGAN-27",
        "meta_object_id": "2015-040A",
        "meta_epoch": "2025-12-20T05:27:00.237312",
        "meta_mean_motion": 13.16060565,
        "meta_eccentricity": 0.0007574,
        "meta_inclination": 100.1006,
        "meta_ra_of_asc_node": 343.5085,
        "meta_arg_of_pericenter": 268.2662,
        "meta_mean_anomaly": 91.7584,
        "meta_ephemeris_type": 0,
        "meta_classification_type": "U",
        "meta_norad_cat_id": 40878,
        "meta_element_set_no": 999,
        "meta_rev_at_epoch": 49412,
        "meta_bstar": -0.00055687,
        "meta_mean_motion_dot": -2.54e-06,
        "meta_mean_motion_ddot": 0,
        "tle_line1": "1 40878U 15040A   25354.22708608 -.00000254  00000+0 -55687-3 0  9995",
        "tle_line2": "2 40878 100.1006 343.5085 0007574 268.2662  91.7584 13.16060565494127"
      },
      "geometry": {
        "type": "Point",
        "coordinates": [
          -175.88010935693006,
          62.88505453362371
        ]
      }
    },
    {
      "type": "Feature",
      "properties": {
        "norad_id": 40894,
        "name": "GAOFEN-9 01",
        "group": "resource",
        "lat": -72.66690327935967,
        "lon": 58.62164653461726,
        "alt_km": 626.7893726935281,
        "timestamp": "2025-12-20T11:30:28.028366+00:00",
        "meta_object_name": "GAOFEN-9 01",
        "meta_object_id": "2015-047A",
        "meta_epoch": "2025-12-20T05:21:43.241760",
        "meta_mean_motion": 14.82439111,
        "meta_eccentricity": 0.0027789,
        "meta_inclination": 97.6533,
        "meta_ra_of_asc_node": 32.8555,
        "meta_arg_of_pericenter": 10.2557,
        "meta_mean_anomaly": 349.9218,
        "meta_ephemeris_type": 0,
        "meta_classification_type": "U",
        "meta_norad_cat_id": 40894,
        "meta_element_set_no": 999,
        "meta_rev_at_epoch": 55367,
        "meta_bstar": 0.00010301,
        "meta_mean_motion_dot": 7.8e-06,
        "meta_mean_motion_ddot": 0,
        "tle_line1": "1 40894U 15047A   25354.22341715  .00000780  00000+0  10301-3 0  9998",
        "tle_line2": "2 40894  97.6533  32.8555 0027789  10.2557 349.9218 14.82439111553677"
      },
      "geometry": {
        "type": "Point",
        "coordinates": [
          58.62164653461726,
          -72.66690327935967
        ]
      }
    }
  ]
}